[{"OBJECT_NAME":"WEINA 2","OBJECT_ID":"2020-103B","EPOCH":"2026-03-09T23:41:17.753856","MEAN_MOTION":14.64853459,"ECCENTRICITY":0.00029334,"INCLINATION":98.066,"RA_OF_ASC_NODE":320.1762,"ARG_OF_PERICENTER":124.191,"MEAN_ANOMALY":235.9572,"EPHEMERIS_TYPE":0,"CLASSIFICATION_TYPE":"U","NORAD_CAT_ID":47303,"ELEMENT_SET_NO":999,"REV_AT_EPOCH":27720,"BSTAR":0.00031236828,"MEAN_MOTION_DOT":1.621e-5,"MEAN_MOTION_DDOT":0},{"OBJECT_NAME":"SL-8 R\/B","OBJECT_ID":"1970-083B","EPOCH":"2026-03-09T12:18:58.680288","MEAN_MOTION":14.63595594,"ECCENTRICITY":0.00089746,"INCLINATION":74.0002,"RA_OF_ASC_NODE":106.443,"ARG_OF_PERICENTER":46.0232,"MEAN_ANOMALY":314.1674,"EPHEMERIS_TYPE":0,"CLASSIFICATION_TYPE":"U","NORAD_CAT_ID":4579,"ELEMENT_SET_NO":999,"REV_AT_EPOCH":94022,"BSTAR":0.00012629262,"MEAN_MOTION_DOT":6.25e-6,"MEAN_MOTION_DDOT":0}]
